[{"OBJECT_NAME":"STARLINK-5983","OBJECT_ID":"2023-094G","EPOCH":"2026-03-09T22:00:01.999584","MEAN_MOTION":15.16743376,"ECCENTRICITY":0.00013318,"INCLINATION":43.0022,"RA_OF_ASC_NODE":28.7705,"ARG_OF_PERICENTER":223.3645,"MEAN_ANOMALY":292.738,"EPHEMERIS_TYPE":0,"CLASSIFICATION_TYPE":"U","NORAD_CAT_ID":57224,"ELEMENT_SET_NO":999,"REV_AT_EPOCH":577,"BSTAR":0.060915258,"MEAN_MOTION_DOT":0.01320603,"MEAN_MOTION_DDOT":0},{"OBJECT_NAME":"OBJECT C","OBJECT_ID":"2025-012C","EPOCH":"2026-03-09T23:21:30.920256","MEAN_MOTION":15.25321174,"ECCENTRICITY":0.00067398,"INCLINATION":97.4321,"RA_OF_ASC_NODE":145.036,"ARG_OF_PERICENTER":249.6621,"MEAN_ANOMALY":110.3894,"EPHEMERIS_TYPE":0,"CLASSIFICATION_TYPE":"U","NORAD_CAT_ID":62727,"ELEMENT_SET_NO":999,"REV_AT_EPOCH":6325,"BSTAR":0.0005750193,"MEAN_MOTION_DOT":0.00014438,"MEAN_MOTION_DDOT":0}]
